[{"OBJECT_NAME":"STARLINK-3578","OBJECT_ID":"2022-022S","EPOCH":"2026-03-09T05:44:13.825824","MEAN_MOTION":15.08839548,"ECCENTRICITY":0.00015104,"INCLINATION":53.2196,"RA_OF_ASC_NODE":11.1471,"ARG_OF_PERICENTER":81.7343,"MEAN_ANOMALY":278.382,"EPHEMERIS_TYPE":0,"CLASSIFICATION_TYPE":"U","NORAD_CAT_ID":51868,"ELEMENT_SET_NO":999,"REV_AT_EPOCH":22304,"BSTAR":2.0512154e-5,"MEAN_MOTION_DOT":3.8e-7,"MEAN_MOTION_DDOT":0},{"OBJECT_NAME":"CZ-6A R\/B","OBJECT_ID":"2022-031C","EPOCH":"2026-03-09T19:50:55.360896","MEAN_MOTION":15.07476837,"ECCENTRICITY":0.00174842,"INCLINATION":97.8104,"RA_OF_ASC_NODE":273.2347,"ARG_OF_PERICENTER":181.6412,"MEAN_ANOMALY":178.4761,"EPHEMERIS_TYPE":0,"CLASSIFICATION_TYPE":"U","NORAD_CAT_ID":52152,"ELEMENT_SET_NO":999,"REV_AT_EPOCH":21633,"BSTAR":0.00020233161,"MEAN_MOTION_DOT":3.012e-5,"MEAN_MOTION_DDOT":0}]
